NORAD_CAT_ID,OBJECT_NAME,OBJECT_TYPE,EPOCH,MEAN_MOTION,ECCENTRICITY,INCLINATION,RA_OF_ASC_NODE,ARG_OF_PERICENTER,MEAN_ANOMALY,BSTAR,MEAN_MOTION_DOT,MEAN_MOTION_DDOT,TLE_LINE0,TLE_LINE1,TLE_LINE2,SEMIMAJOR_AXIS,PERIOD,APOGEE,PERIGEE,DECAYED
52494.0,STARLINK-3857,PAYLOAD,2022-09-13 22:00:00,15.08903748,0.0001802,53.2181,2.8181,38.9539,193.2348,-0.010725,-0.00167333,0.0,0 STARLINK-3857,1 52494U 22049AV  22256.91667824 -.00167333  00000-0 -10725-1 0  9992,2 52494  53.2181   2.8181 0001802  38.9539 193.2348 15.08903748  1303,6917.686,95.434,540.797,538.304,0.0
52494.0,STARLINK-3857,PAYLOAD,2022-09-14 14:00:01,15.08837618,0.0001849,53.2188,359.829,41.9602,213.4406,-0.0017070999999999,-0.00027352,0.0,0 STARLINK-3857,1 52494U 22049AV  22257.58334491 -.00027352  00000-0 -17071-2 0  9995,2 52494  53.2188 359.8290 0001849  41.9602 213.4406 15.08837618  1304,6917.888000000001,95.438,541.0319999999998,538.474,0.0
52494.0,STARLINK-3857,PAYLOAD,2022-09-14 22:00:00,15.08858722,0.0001811999999999,53.2186,358.3321,40.5175,226.4601,-0.0041132,-0.00065192,0.0,0 STARLINK-3857,1 52494U 22049AV  22257.91667824 -.00065192  00000-0 -41132-2 0  9990,2 52494  53.2186 358.3321 0001812  40.5175 226.4601 15.08858722 20560,6917.823,95.436,540.942,538.435,0.0
52494.0,STARLINK-3857,PAYLOAD,2022-09-15 14:00:01,15.08824395,0.0001973,53.2186,355.3401,43.1048,247.0421,0.0011324999999999,0.00017774,0.0,0 STARLINK-3857,1 52494U 22049AV  22258.58334491  .00017774  00000-0  11325-2 0  9997,2 52494  53.2186 355.3401 0001973  43.1048 247.0421 15.08824395  1301,6917.928000000001,95.439,541.158,538.428,0.0
52494.0,STARLINK-3857,PAYLOAD,2022-09-15 16:00:00,15.08815167,0.0001979,53.2187,354.9664,42.0486,340.9965,0.0029024,0.00046176,0.0,0 STARLINK-3857,1 52494U 22049AV  22258.66667824  .00046176  00000-0  29024-2 0  9998,2 52494  53.2187 354.9664 0001979  42.0486 340.9965 15.08815167  1301,6917.956,95.439,541.19,538.452,0.0
52494.0,STARLINK-3857,PAYLOAD,2022-09-15 23:50:52,15.08841642,0.0001858,53.2202,353.4962,45.7973,314.3172,4.854e-05,4.85e-06,0.0,0 STARLINK-3857,1 52494U 22049AV  22258.99365875  .00000485  00000-0  48540-4 0  9994,2 52494  53.2202 353.4962 0001858  45.7973 314.3172 15.08841642 20720,6917.875,95.437,541.026,538.455,0.0
52494.0,STARLINK-3857,PAYLOAD,2022-09-16 10:58:34,15.08835339,0.0001882,53.2202,351.4144,45.476000000000006,314.6386,5.1558e-05,5.32e-06,0.0,0 STARLINK-3857,1 52494U 22049AV  22259.45734298  .00000532  00000-0  51558-4 0  9991,2 52494  53.2202 351.4144 0001882  45.4760 314.6386 15.08835339 20634,6917.895,95.438,541.062,538.4580000000002,0.0
52494.0,STARLINK-3857,PAYLOAD,2022-09-16 15:44:43,15.08837119,0.0001879,53.2202,350.5225,48.3284,311.7868,1.1004000000000003e-05,-1.13e-06,0.0,0 STARLINK-3857,1 52494U 22049AV  22259.65606332 -.00000113  00000-0  11004-4 0  9998,2 52494  53.2202 350.5225 0001879  48.3284 311.7868 15.08837119 20825,6917.889,95.438,541.054,538.4540000000002,0.0
52494.0,STARLINK-3857,PAYLOAD,2022-09-17 12:24:45,15.08829762,0.0001806,53.2201,346.657,48.0868,312.0278,6.5301e-05,7.51e-06,0.0,0 STARLINK-3857,1 52494U 22049AV  22260.51718934  .00000751  00000-0  65301-4 0  9993,2 52494  53.2201 346.6570 0001806  48.0868 312.0278 15.08829762 20798,6917.9119999999975,95.438,541.026,538.5269999999998,0.0
52494.0,STARLINK-3857,PAYLOAD,2022-09-17 15:35:31,15.0882979,0.0001875999999999,53.2201,346.0626,46.5678,313.547,7.8976e-05,9.69e-06,0.0,0 STARLINK-3857,1 52494U 22049AV  22260.64966978  .00000969  00000-0  78976-4 0  9993,2 52494  53.2201 346.0626 0001876  46.5678 313.5470 15.08829790 20817,6917.9119999999975,95.438,541.0740000000002,538.479,0.0
52494.0,STARLINK-3857,PAYLOAD,2022-09-18 01:07:49,15.08838275,0.0001829,53.2203,344.2795,39.7377,320.3749,0.00010483,1.381e-05,0.0,0 STARLINK-3857,1 52494U 22049AV  22261.04710378  .00001381  00000-0  10483-3 0  9996,2 52494  53.2203 344.2795 0001829  39.7377 320.3749 15.08838275 21032,6917.886,95.438,541.016,538.485,0.0
52494.0,STARLINK-3857,PAYLOAD,2022-09-18 10:40:09,15.08833011,0.0001864,53.2202,342.4952,39.8601,320.2528,2.7353e-05,1.47e-06,0.0,0 STARLINK-3857,1 52494U 22049AV  22261.44455134  .00000147  00000-0  27353-4 0  9990,2 52494  53.2202 342.4952 0001864  39.8601 320.2528 15.08833011 21099,6917.901999999999,95.438,541.056,538.477,0.0
52494.0,STARLINK-3857,PAYLOAD,2022-09-18 12:15:32,15.08828447,0.0001986999999999,53.2202,342.1980000000001,29.2423,330.86800000000005,0.00010521,1.386e-05,0.0,0 STARLINK-3857,1 52494U 22049AV  22261.51079226  .00001386  00000-0  10521-3 0  9996,2 52494  53.2202 342.1980 0001987  29.2423 330.8680 15.08828447 20944,6917.916,95.438,541.155,538.406,0.0
52494.0,STARLINK-3857,PAYLOAD,2022-09-18 15:26:19,15.08815732,0.0002008999999999,53.2202,341.6031,32.4275,327.684,0.00030539,4.572e-05,0.0,0 STARLINK-3857,1 52494U 22049AV  22261.64327610  .00004572  00000-0  30539-3 0  9994,2 52494  53.2202 341.6031 0002009  32.4275 327.6840 15.08815732 21128,6917.955,95.439,541.2090000000002,538.43,0.0
52494.0,STARLINK-3857,PAYLOAD,2022-09-19 04:09:23,15.08840307,0.0001940999999999,53.2201,339.2253,35.7114,324.4008,0.00012507,1.703e-05,0.0,0 STARLINK-3857,1 52494U 22049AV  22262.17318487  .00001703  00000-0  12507-3 0  9993,2 52494  53.2201 339.2253 0001941  35.7114 324.4008 15.08840307 21204,6917.879,95.438,541.087,538.4019999999998,0.0
52494.0,STARLINK-3857,PAYLOAD,2022-09-19 10:30:56,15.08832605,0.0001996,53.2203,338.0359,35.4072,324.7052,2.9998000000000013e-05,1.89e-06,0.0,0 STARLINK-3857,1 52494U 22049AV  22262.43815349  .00000189  00000-0  29998-4 0  9991,2 52494  53.2203 338.0359 0001996  35.4072 324.7052 15.08832605 21248,6917.903,95.438,541.149,538.387,0.0
52494.0,STARLINK-3857,PAYLOAD,2022-09-19 15:17:05,15.08835601,0.0002137,53.22,337.1433,34.9543,325.1589,3.6658e-05,2.95e-06,0.0,0 STARLINK-3857,1 52494U 22049AV  22262.63687213  .00000295  00000-0  36658-4 0  9999,2 52494  53.2200 337.1433 0002137  34.9543 325.1589 15.08835601 21118,6917.894,95.438,541.237,538.28,0.0
52494.0,STARLINK-3857,PAYLOAD,2022-09-19 21:38:37,15.08843769,0.0001978,53.22,335.9544,38.7565,321.3569,7.1055e-05,8.43e-06,0.0,0 STARLINK-3857,1 52494U 22049AV  22262.90182522  .00000843  00000-0  71055-4 0  9991,2 52494  53.2200 335.9544 0001978  38.7565 321.3569 15.08843769 21317,6917.869000000002,95.437,541.102,538.366,0.0
52494.0,STARLINK-3857,PAYLOAD,2022-09-20 11:57:06,15.08836847,0.0001932,53.22,333.2779,42.4377,317.6764,5.7367e-05,6.25e-06,0.0,0 STARLINK-3857,1 52494U 22049AV  22263.49799037  .00000625  00000-0  57367-4 0  9999,2 52494  53.2200 333.2779 0001932  42.4377 317.6764 15.08836847 21247,6917.89,95.438,541.092,538.418,0.0
52494.0,STARLINK-3857,PAYLOAD,2022-09-20 15:07:52,15.08836598,0.0001906999999999,53.2198,332.6834,43.3078,316.8064,5.608600000000001e-05,6.05e-06,0.0,0 STARLINK-3857,1 52494U 22049AV  22263.63047080  .00000605  00000-0  56086-4 0  9994,2 52494  53.2198 332.6834 0001907  43.3078 316.8064 15.08836598 21267,6917.891,95.438,541.075,538.437,0.0
52494.0,STARLINK-3857,PAYLOAD,2022-09-21 07:01:44,15.08831874,0.0001946,53.2194,329.7088,45.504,314.6111,2.8297e-05,1.62e-06,0.0,0 STARLINK-3857,1 52494U 22049AV  22264.29287375  .00000162  00000-0  28297-4 0  9991,2 52494  53.2194 329.7088 0001946  45.5040 314.6111 15.08831874 21369,6917.905,95.438,541.116,538.424,0.0
52494.0,STARLINK-3857,PAYLOAD,2022-09-21 22:55:35,15.08844474,0.0002224,53.2199,326.7357,45.9869,314.1306,2.0148e-05,3.2e-07,0.0,0 STARLINK-3857,1 52494U 22049AV  22264.95526770  .00000032  00000-0  20148-4 0  9992,2 52494  53.2199 326.7357 0002224  45.9869 314.1306 15.08844474 21623,6917.8669999999975,95.437,541.27,538.193,0.0
52494.0,STARLINK-3857,PAYLOAD,2022-09-22 21:10:59,15.08838455,0.000196,53.22,322.5733,37.1562,322.9565,-7.1889e-05,-1.432e-05,0.0,0 STARLINK-3857,1 52494U 22049AV  22265.88263525 -.00001432  00000-0 -71889-4 0  9996,2 52494  53.2200 322.5733 0001960  37.1562 322.9565 15.08838455 21601,6917.885,95.438,541.106,538.394,0.0
52494.0,STARLINK-3857,PAYLOAD,2022-09-22 22:46:22,15.08837014,0.0002016,53.2202,322.276,38.6394,321.4742,-3.3286e-05,-8.18e-06,0.0,0 STARLINK-3857,1 52494U 22049AV  22265.94887539 -.00000818  00000-0 -33286-4 0  9996,2 52494  53.2202 322.2760 0002016  38.6394 321.4742 15.08837014 21771,6917.89,95.438,541.149,538.36,0.0
52494.0,STARLINK-3857,PAYLOAD,2022-09-23 11:29:27,15.08842931,0.00021,53.2198,319.8969,41.4448,318.6703,0.0001189,1.605e-05,0.0,0 STARLINK-3857,1 52494U 22049AV  22266.47878719  .00001605  00000-0  11890-3 0  9994,2 52494  53.2198 319.8969 0002100  41.4448 318.6703 15.08842931 21852,6917.871,95.437,541.189,538.284,0.0
52494.0,STARLINK-3857,PAYLOAD,2022-09-24 09:44:51,15.08835236,0.0001988,53.2188,315.7321,44.8797,315.2356,6.6183e-05,7.65e-06,0.0,0 STARLINK-3857,1 52494U 22049AV  22267.40615293  .00000765  00000-0  66183-4 0  9996,2 52494  53.2188 315.7321 0001988  44.8797 315.2356 15.08835236 21830,6917.895,95.438,541.135,538.385,0.0
52494.0,STARLINK-3857,PAYLOAD,2022-09-24 22:27:55,15.08858948,0.0002171,53.2186,313.3538,42.3522,317.7637,-6.8142e-05,-1.373e-05,0.0,0 STARLINK-3857,1 52494U 22049AV  22267.93606336 -.00001373  00000-0 -68142-4 0  9997,2 52494  53.2186 313.3538 0002171  42.3522 317.7637 15.08858948 22077,6917.821999999999,95.436,541.189,538.186,0.0
52494.0,STARLINK-3857,PAYLOAD,2022-09-25 09:35:38,15.08839477,0.0002208,53.2191,311.274,41.0197,319.0961,-7.669e-06,-4.1e-06,0.0,0 STARLINK-3857,1 52494U 22049AV  22268.39975220 -.00000410  00000-0 -76690-5 0  9998,2 52494  53.2191 311.2740 0002208  41.0197 319.0961 15.08839477 21980,6917.882,95.438,541.274,538.22,0.0
52494.0,STARLINK-3857,PAYLOAD,2022-09-26 09:26:25,15.08835978,0.0002109999999999,53.2191,306.8136,39.5691,320.5455,2.1495e-05,5.4e-07,0.0,0 STARLINK-3857,1 52494U 22049AV  22269.39335203  .00000054  00000-0  21495-4 0  9994,2 52494  53.2191 306.8136 0002110  39.5691 320.5455 15.08835978 22137,6917.893,95.438,541.217,538.298,0.0
